[
{"id":"1","nameMarker":"Chatelet","postalCode":"75001","latitude":"48.8587","longitude":"2.3473","typePlaces":"Metro"}, 
{"id":"2","nameMarker":"Concorde","postalCode":"75001","latitude":"48.8663","longitude":"2.32359","typePlaces":"Metro"}, 
{"id":"3","nameMarker":"Etienne Marcel","postalCode":"75001","latitude":"48.8637","longitude":"2.34899","typePlaces":"Metro"}, 
{"id":"4","nameMarker":"Les Halles","postalCode":"75001","latitude":"48.8624","longitude":"2.34567","typePlaces":"Metro"}, 
{"id":"5","nameMarker":"Louvre - Rivoli","postalCode":"75001","latitude":"48.8607","longitude":"2.34096","typePlaces":"Metro"}, 
{"id":"6","nameMarker":"Palais Royal - Musée du Louvre","postalCode":"75001","latitude":"48.8629","longitude":"2.33603","typePlaces":"Metro"}, 
{"id":"7","nameMarker":"Pont Neuf","postalCode":"75001","latitude":"48.8585","longitude":"2.34223","typePlaces":"Metro"}, 
{"id":"8","nameMarker":"Pyramides","postalCode":"75001","latitude":"48.8658","longitude":"2.33436","typePlaces":"Metro"}, 
{"id":"9","nameMarker":"Tuileries","postalCode":"75001","latitude":"48.8643","longitude":"2.33013","typePlaces":"Metro"}, 
{"id":"10","nameMarker":"Bonne-Nouvelle ","postalCode":"75002","latitude":"48.8703","longitude":"2.35037","typePlaces":"Metro"}, 
{"id":"11","nameMarker":"Bourse ","postalCode":"75002","latitude":"48.869","longitude":"2.34069","typePlaces":"Metro"}, 
{"id":"12","nameMarker":"Etienne Marcel ","postalCode":"75002","latitude":"48.8637","longitude":"2.34899","typePlaces":"Metro"}, 
{"id":"13","nameMarker":"Grands Boulevards","postalCode":"75002","latitude":"48.8715","longitude":"2.34307","typePlaces":"Metro"}, 
{"id":"14","nameMarker":"Opéra","postalCode":"75002","latitude":"48.8709","longitude":"2.33221","typePlaces":"Metro"}, 
{"id":"15","nameMarker":"Quatre-Septembre ","postalCode":"75002","latitude":"48.8696","longitude":"2.33583","typePlaces":"Metro"}, 
{"id":"16","nameMarker":"Réaumur - Sébastopol","postalCode":"75002","latitude":"48.8662","longitude":"2.35254","typePlaces":"Metro"}, 
{"id":"17","nameMarker":"Richelieu - Drouot","postalCode":"75002","latitude":"48.8719","longitude":"2.33965","typePlaces":"Metro"}, 
{"id":"18","nameMarker":"Sentier","postalCode":"75002","latitude":"48.8672","longitude":"2.34747","typePlaces":"Metro"}, 
{"id":"19","nameMarker":"Strasbourg - Saint-Denis","postalCode":"75002","latitude":"48.8693","longitude":"2.35386","typePlaces":"Metro"}, 
{"id":"20","nameMarker":"Arts et Métiers","postalCode":"75003","latitude":"48.8655","longitude":"2.35612","typePlaces":"Metro"}, 
{"id":"21","nameMarker":"Chemin Vert","postalCode":"75003","latitude":"48.8575","longitude":"2.36792","typePlaces":"Metro"}, 
{"id":"22","nameMarker":"Filles du Calvaire","postalCode":"75003","latitude":"48.8631","longitude":"2.36661","typePlaces":"Metro"}, 
{"id":"23","nameMarker":"Rambuteau","postalCode":"75003","latitude":"48.8626","longitude":"2.35402","typePlaces":"Metro"}, 
{"id":"24","nameMarker":"Réaumur - Sébastopol","postalCode":"75003","latitude":"48.8662","longitude":"2.35254","typePlaces":"Metro"}, 
{"id":"25","nameMarker":"République","postalCode":"75003","latitude":"48.8675","longitude":"2.36381","typePlaces":"Metro"}, 
{"id":"26","nameMarker":"Saint-Sébastien - Froissart","postalCode":"75003","latitude":"48.861","longitude":"2.36722","typePlaces":"Metro"}, 
{"id":"27","nameMarker":"Strasbourg - Saint-Denis","postalCode":"75003","latitude":"48.8693","longitude":"2.35386","typePlaces":"Metro"}, 
{"id":"28","nameMarker":"Temple","postalCode":"75003","latitude":"48.8665","longitude":"2.36058","typePlaces":"Metro"}, 
{"id":"29","nameMarker":"Bastille","postalCode":"75004","latitude":"48.8531","longitude":"2.36925","typePlaces":"Metro"}, 
{"id":"30","nameMarker":"Chatelet","postalCode":"75004","latitude":"48.8587","longitude":"2.3473","typePlaces":"Metro"}, 
{"id":"31","nameMarker":"Cité","postalCode":"75004","latitude":"48.8552","longitude":"2.34716","typePlaces":"Metro"}, 
{"id":"32","nameMarker":"Hôtel de Ville","postalCode":"75004","latitude":"48.8575","longitude":"2.35179","typePlaces":"Metro"}, 
{"id":"33","nameMarker":"Pont Marie","postalCode":"75004","latitude":"48.8536","longitude":"2.35722","typePlaces":"Metro"}, 
{"id":"34","nameMarker":"Rambuteau","postalCode":"75004","latitude":"48.8626","longitude":"2.35402","typePlaces":"Metro"}, 
{"id":"35","nameMarker":"Saint-Paul","postalCode":"75004","latitude":"48.8552","longitude":"2.36074","typePlaces":"Metro"}, 
{"id":"36","nameMarker":"Sully - Morland","postalCode":"75004","latitude":"48.8517","longitude":"2.36175","typePlaces":"Metro"}, 
{"id":"37","nameMarker":"Cardinal Lemoine","postalCode":"75005","latitude":"48.8466","longitude":"2.35157","typePlaces":"Metro"}, 
{"id":"38","nameMarker":"Censier - Daubenton","postalCode":"75005","latitude":"48.8404","longitude":"2.35155","typePlaces":"Metro"}, 
{"id":"39","nameMarker":"Cluny - La Sorbonne","postalCode":"75005","latitude":"48.8511","longitude":"2.34438","typePlaces":"Metro"}, 
{"id":"40","nameMarker":"Gare d'Austerlitz","postalCode":"75005","latitude":"48.8418","longitude":"2.36612","typePlaces":"Metro"}, 
{"id":"41","nameMarker":"Jussieu","postalCode":"75005","latitude":"48.846","longitude":"2.35484","typePlaces":"Metro"}, 
{"id":"42","nameMarker":"Les Gobelins","postalCode":"75005","latitude":"48.836","longitude":"2.35261","typePlaces":"Metro"}, 
{"id":"43","nameMarker":"Maubert - Mutualité","postalCode":"75005","latitude":"48.8502","longitude":"2.34785","typePlaces":"Metro"}, 
{"id":"44","nameMarker":"Place Monge","postalCode":"75005","latitude":"48.8432","longitude":"2.35207","typePlaces":"Metro"}, 
{"id":"45","nameMarker":"Saint-Michel","postalCode":"75005","latitude":"48.8537","longitude":"2.34464","typePlaces":"Metro"}, 
{"id":"46","nameMarker":"Duroc","postalCode":"75006","latitude":"48.8469","longitude":"2.31673","typePlaces":"Metro"}, 
{"id":"47","nameMarker":"Mabillon","postalCode":"75006","latitude":"48.853","longitude":"2.33569","typePlaces":"Metro"}, 
{"id":"48","nameMarker":"Montparnasse - Bienvenue","postalCode":"75006","latitude":"48.841","longitude":"2.32037","typePlaces":"Metro"}, 
{"id":"49","nameMarker":"Notre-Dame-des-Champs","postalCode":"75006","latitude":"48.8449","longitude":"2.32874","typePlaces":"Metro"}, 
{"id":"50","nameMarker":"Odéon","postalCode":"75006","latitude":"48.8521","longitude":"2.34026","typePlaces":"Metro"}, 
{"id":"51","nameMarker":"Rennes","postalCode":"75006","latitude":"48.8485","longitude":"2.32769","typePlaces":"Metro"}, 
{"id":"52","nameMarker":"Saint-Germain-des-Prés","postalCode":"75006","latitude":"48.8537","longitude":"2.33382","typePlaces":"Metro"}, 
{"id":"53","nameMarker":"Saint-Michel","postalCode":"75006","latitude":"48.8537","longitude":"2.34464","typePlaces":"Metro"}, 
{"id":"54","nameMarker":"Saint-Placide","postalCode":"75006","latitude":"48.8468","longitude":"2.32693","typePlaces":"Metro"}, 
{"id":"55","nameMarker":"Saint-Sulpice","postalCode":"75006","latitude":"48.8508","longitude":"2.33087","typePlaces":"Metro"}, 
{"id":"56","nameMarker":"Sêvres - Babylone","postalCode":"75006","latitude":"48.8513","longitude":"2.32652","typePlaces":"Metro"}, 
{"id":"57","nameMarker":"Vaneau","postalCode":"75006","latitude":"48.8489","longitude":"2.32115","typePlaces":"Metro"}, 
{"id":"58","nameMarker":"Vavin","postalCode":"75006","latitude":"48.8423","longitude":"2.3291","typePlaces":"Metro"}, 
{"id":"59","nameMarker":"Alexandre Dumas","postalCode":"75011","latitude":"48.8563","longitude":"2.39442","typePlaces":"Metro"}, 
{"id":"60","nameMarker":"Avron","postalCode":"75011","latitude":"48.8515","longitude":"2.39821","typePlaces":"Metro"}, 
{"id":"61","nameMarker":"Bastille","postalCode":"75011","latitude":"48.8531","longitude":"2.36925","typePlaces":"Metro"}, 
{"id":"62","nameMarker":"Belleville","postalCode":"75011","latitude":"48.8721","longitude":"2.37694","typePlaces":"Metro"}, 
{"id":"63","nameMarker":"Bréguet - Sabin","postalCode":"75011","latitude":"48.8566","longitude":"2.3705","typePlaces":"Metro"}, 
{"id":"64","nameMarker":"Charonne","postalCode":"75011","latitude":"48.8545","longitude":"2.38544","typePlaces":"Metro"}, 
{"id":"65","nameMarker":"Chemin Vert","postalCode":"75011","latitude":"48.8575","longitude":"2.36792","typePlaces":"Metro"}, 
{"id":"66","nameMarker":"Couronnes","postalCode":"75011","latitude":"48.8691","longitude":"2.38045","typePlaces":"Metro"}, 
{"id":"67","nameMarker":"Faidherbe - Chaligny","postalCode":"75011","latitude":"48.8503","longitude":"2.38349","typePlaces":"Metro"}, 
{"id":"68","nameMarker":"Filles du Calvaire","postalCode":"75011","latitude":"48.8631","longitude":"2.36661","typePlaces":"Metro"}, 
{"id":"69","nameMarker":"Goncourt","postalCode":"75011","latitude":"48.87","longitude":"2.37104","typePlaces":"Metro"}, 
{"id":"70","nameMarker":"Ledru-Rollin","postalCode":"75011","latitude":"48.8513","longitude":"2.37609","typePlaces":"Metro"}, 
{"id":"71","nameMarker":"Ménilmontant","postalCode":"75011","latitude":"48.8667","longitude":"2.38328","typePlaces":"Metro"}, 
{"id":"72","nameMarker":"Nation","postalCode":"75011","latitude":"48.8487","longitude":"2.3949","typePlaces":"Metro"}, 
{"id":"73","nameMarker":"Oberkampf","postalCode":"75011","latitude":"48.8646","longitude":"2.36867","typePlaces":"Metro"}, 
{"id":"74","nameMarker":"Parmentier","postalCode":"75011","latitude":"48.8654","longitude":"2.37455","typePlaces":"Metro"}, 
{"id":"75","nameMarker":"Pêre Lachaise","postalCode":"75011","latitude":"48.8629","longitude":"2.38739","typePlaces":"Metro"}, 
{"id":"76","nameMarker":"Philippe Auguste","postalCode":"75011","latitude":"48.8583","longitude":"2.39026","typePlaces":"Metro"}, 
{"id":"77","nameMarker":"République","postalCode":"75011","latitude":"48.8675","longitude":"2.36381","typePlaces":"Metro"}, 
{"id":"78","nameMarker":"Richard-Lenoir","postalCode":"75011","latitude":"48.8603","longitude":"2.37216","typePlaces":"Metro"}, 
{"id":"79","nameMarker":"Rue des Boulets","postalCode":"75011","latitude":"48.8524","longitude":"2.38943","typePlaces":"Metro"}, 
{"id":"80","nameMarker":"Rue Saint-Maur","postalCode":"75011","latitude":"48.8642","longitude":"2.38093","typePlaces":"Metro"}, 
{"id":"81","nameMarker":"Saint-Ambroise","postalCode":"75011","latitude":"48.8618","longitude":"2.37312","typePlaces":"Metro"}, 
{"id":"82","nameMarker":"Saint-Sébastien - Froissart","postalCode":"75011","latitude":"48.861","longitude":"2.36722","typePlaces":"Metro"}, 
{"id":"83","nameMarker":"Voltaire","postalCode":"75011","latitude":"48.8578","longitude":"2.3803","typePlaces":"Metro"}, 
{"id":"84","nameMarker":"Bastille","postalCode":"75012","latitude":"48.8531","longitude":"2.36925","typePlaces":"Metro"}, 
{"id":"85","nameMarker":"Bel-Air","postalCode":"75012","latitude":"48.8418","longitude":"2.40114","typePlaces":"Metro"}, 
{"id":"86","nameMarker":"Bercy","postalCode":"75012","latitude":"48.8402","longitude":"2.37991","typePlaces":"Metro"}, 
{"id":"87","nameMarker":"Chateau de Vincennes","postalCode":"75012","latitude":"48.8446","longitude":"2.43875","typePlaces":"Metro"}, 
{"id":"88","nameMarker":"Cour Saint-Emilion","postalCode":"75012","latitude":"48.8336","longitude":"2.38619","typePlaces":"Metro"}, 
{"id":"89","nameMarker":"Daumesnil","postalCode":"75012","latitude":"48.8394","longitude":"2.3964","typePlaces":"Metro"}, 
{"id":"90","nameMarker":"Dugommier","postalCode":"75012","latitude":"48.8391","longitude":"2.38996","typePlaces":"Metro"}, 
{"id":"91","nameMarker":"Faidherbe - Chaligny","postalCode":"75012","latitude":"48.8503","longitude":"2.38349","typePlaces":"Metro"}, 
{"id":"92","nameMarker":"Gare de Lyon","postalCode":"75012","latitude":"48.8443","longitude":"2.37438","typePlaces":"Metro"}, 
{"id":"93","nameMarker":"Ledru-Rollin","postalCode":"75012","latitude":"48.8513","longitude":"2.3761","typePlaces":"Metro"}, 
{"id":"94","nameMarker":"Michel Bizot","postalCode":"75012","latitude":"48.8372","longitude":"2.40237","typePlaces":"Metro"}, 
{"id":"95","nameMarker":"Montgallet","postalCode":"75012","latitude":"48.8443","longitude":"2.39004","typePlaces":"Metro"}, 
{"id":"96","nameMarker":"Nation","postalCode":"75012","latitude":"48.8487","longitude":"2.3949","typePlaces":"Metro"}, 
{"id":"97","nameMarker":"Picpus","postalCode":"75012","latitude":"48.8449","longitude":"2.40126","typePlaces":"Metro"}, 
{"id":"98","nameMarker":"Porte de Charenton","postalCode":"75012","latitude":"48.8328","longitude":"2.4004","typePlaces":"Metro"}, 
{"id":"99","nameMarker":"Porte de Vincennes","postalCode":"75012","latitude":"48.847","longitude":"2.40933","typePlaces":"Metro"}, 
{"id":"100","nameMarker":"Porte Dorée","postalCode":"75012","latitude":"48.8349","longitude":"2.40549","typePlaces":"Metro"}, 
{"id":"101","nameMarker":"Quai de la Rapée","postalCode":"75012","latitude":"48.8466","longitude":"2.36588","typePlaces":"Metro"}, 
{"id":"102","nameMarker":"Reuilly - Diderot","postalCode":"75012","latitude":"48.8473","longitude":"2.38658","typePlaces":"Metro"}, 
{"id":"103","nameMarker":"Bibliothêque François-Mitterrand","postalCode":"75013","latitude":"48.8298","longitude":"2.37675","typePlaces":"Metro"}, 
{"id":"104","nameMarker":"Campo-Formio","postalCode":"75013","latitude":"48.8356","longitude":"2.3584","typePlaces":"Metro"}, 
{"id":"105","nameMarker":"Chevaleret","postalCode":"75013","latitude":"48.8349","longitude":"2.36808","typePlaces":"Metro"}, 
{"id":"106","nameMarker":"Corvisart","postalCode":"75013","latitude":"48.8299","longitude":"2.3505","typePlaces":"Metro"}, 
{"id":"107","nameMarker":"Gare d'Austerlitz","postalCode":"75013","latitude":"48.8418","longitude":"2.36612","typePlaces":"Metro"}, 
{"id":"108","nameMarker":"Glaciêre","postalCode":"75013","latitude":"48.8312","longitude":"2.34338","typePlaces":"Metro"}, 
{"id":"109","nameMarker":"Les Gobelins","postalCode":"75013","latitude":"48.836","longitude":"2.35261","typePlaces":"Metro"}, 
{"id":"110","nameMarker":"Maison Blanche","postalCode":"75013","latitude":"48.8217","longitude":"2.35855","typePlaces":"Metro"}, 
{"id":"111","nameMarker":"Nationale","postalCode":"75013","latitude":"48.8332","longitude":"2.36272","typePlaces":"Metro"}, 
{"id":"112","nameMarker":"Olympiades","postalCode":"75013","latitude":"48.827","longitude":"2.36603","typePlaces":"Metro"}, 
{"id":"113","nameMarker":"Place d'Italie","postalCode":"75013","latitude":"48.8308","longitude":"2.35539","typePlaces":"Metro"}, 
{"id":"114","nameMarker":"Porte d'Italie","postalCode":"75013","latitude":"48.8191","longitude":"2.36023","typePlaces":"Metro"}, 
{"id":"115","nameMarker":"Porte d'Ivry","postalCode":"75013","latitude":"48.8213","longitude":"2.3697","typePlaces":"Metro"}, 
{"id":"116","nameMarker":"Porte de Choisy","postalCode":"75013","latitude":"48.82","longitude":"2.36435","typePlaces":"Metro"}, 
{"id":"117","nameMarker":"Quai de la Gare","postalCode":"75013","latitude":"48.8371","longitude":"2.373","typePlaces":"Metro"}, 
{"id":"118","nameMarker":"Saint-Marcel","postalCode":"75013","latitude":"48.8385","longitude":"2.36074","typePlaces":"Metro"}, 
{"id":"119","nameMarker":"Tolbiac","postalCode":"75013","latitude":"48.8262","longitude":"2.35723","typePlaces":"Metro"}, 
{"id":"120","nameMarker":"Alésia","postalCode":"75014","latitude":"48.8282","longitude":"2.32705","typePlaces":"Metro"}, 
{"id":"121","nameMarker":"Denfert-Rochereau","postalCode":"75014","latitude":"48.8338","longitude":"2.33267","typePlaces":"Metro"}, 
{"id":"122","nameMarker":"Edgar Quinet","postalCode":"75014","latitude":"48.841","longitude":"2.32546","typePlaces":"Metro"}, 
{"id":"123","nameMarker":"Gaité","postalCode":"75014","latitude":"48.8386","longitude":"2.3224","typePlaces":"Metro"}, 
{"id":"124","nameMarker":"Montparnasse - Bienvenue","postalCode":"75014","latitude":"48.841","longitude":"2.32037","typePlaces":"Metro"}, 
{"id":"125","nameMarker":"Mouton-Duvernet","postalCode":"75014","latitude":"48.8314","longitude":"2.32975","typePlaces":"Metro"}, 
{"id":"126","nameMarker":"Pernety","postalCode":"75014","latitude":"48.834","longitude":"2.31789","typePlaces":"Metro"}, 
{"id":"127","nameMarker":"Plaisance","postalCode":"75014","latitude":"48.8318","longitude":"2.31382","typePlaces":"Metro"}, 
{"id":"128","nameMarker":"Porte d'Orléans","postalCode":"75014","latitude":"48.8234","longitude":"2.32522","typePlaces":"Metro"}, 
{"id":"129","nameMarker":"Porte de Vanves","postalCode":"75014","latitude":"48.8276","longitude":"2.30593","typePlaces":"Metro"}, 
{"id":"130","nameMarker":"Raspail","postalCode":"75014","latitude":"48.839","longitude":"2.33071","typePlaces":"Metro"}, 
{"id":"131","nameMarker":"Saint-Jacques","postalCode":"75014","latitude":"48.8329","longitude":"2.33707","typePlaces":"Metro"}, 
{"id":"132","nameMarker":"Vavin","postalCode":"75014","latitude":"48.8423","longitude":"2.3291","typePlaces":"Metro"}]
